[{"OBJECT_NAME":"ONEWEB-0340","OBJECT_ID":"2021-083W","EPOCH":"2026-05-15T01:13:58.057824","MEAN_MOTION":13.18683718,"ECCENTRICITY":0.0001879,"INCLINATION":87.9177,"RA_OF_ASC_NODE":342.0486,"ARG_OF_PERICENTER":91.1481,"MEAN_ANOMALY":268.9866,"EPHEMERIS_TYPE":0,"CLASSIFICATION_TYPE":"U","NORAD_CAT_ID":49206,"ELEMENT_SET_NO":999,"REV_AT_EPOCH":22560,"BSTAR":3.2649e-05,"MEAN_MOTION_DOT":2.6e-07,"MEAN_MOTION_DDOT":0.0},{"OBJECT_NAME":"ONEWEB-0341","OBJECT_ID":"2021-083X","EPOCH":"2026-05-15T03:12:56.150208","MEAN_MOTION":13.18685465,"ECCENTRICITY":0.0001489,"INCLINATION":87.9173,"RA_OF_ASC_NODE":342.0373,"ARG_OF_PERICENTER":98.6465,"MEAN_ANOMALY":261.4836,"EPHEMERIS_TYPE":0,"CLASSIFICATION_TYPE":"U","NORAD_CAT_ID":49207,"ELEMENT_SET_NO":999,"REV_AT_EPOCH":22563,"BSTAR":0.000372,"MEAN_MOTION_DOT":1.6e-06,"MEAN_MOTION_DDOT":0.0},{"OBJECT_NAME":"ONEWEB-0342","OBJECT_ID":"2021-083Y","EPOCH":"2026-05-15T07:42:07.090560","MEAN_MOTION":13.20771677,"ECCENTRICITY":0.0001781,"INCLINATION":87.9164,"RA_OF_ASC_NODE":280.9915,"ARG_OF_PERICENTER":95.0585,"MEAN_ANOMALY":265.0752,"EPHEMERIS_TYPE":0,"CLASSIFICATION_TYPE":"U","NORAD_CAT_ID":49208,"ELEMENT_SET_NO":999,"REV_AT_EPOCH":23244,"BSTAR":-8.9085e-05,"MEAN_MOTION_DOT":-2.3e-07,"MEAN_MOTION_DDOT":0.0},{"OBJECT_NAME":"ONEWEB-0343","OBJECT_ID":"2021-083Z","EPOCH":"2026-05-15T01:35:48.469344","MEAN_MOTION":13.18684356,"ECCENTRICITY":0.0001532,"INCLINATION":87.9174,"RA_OF_ASC_NODE":342.0486,"ARG_OF_PERICENTER":76.0562,"MEAN_ANOMALY":284.074,"EPHEMERIS_TYPE":0,"CLASSIFICATION_TYPE":"U","NORAD_CAT_ID":49209,"ELEMENT_SET_NO":999,"REV_AT_EPOCH":22567,"BSTAR":0.00025879,"MEAN_MOTION_DOT":1.15e-06,"MEAN_MOTION_DDOT":0.0},{"OBJECT_NAME":"ONEWEB-0344","OBJECT_ID":"2021-083AA","EPOCH":"2026-05-15T01:24:38.066688","MEAN_MOTION":13.13471412,"ECCENTRICITY":0.0001518,"INCLINATION":87.8932,"RA_OF_ASC_NODE":326.845,"ARG_OF_PERICENTER":99.1037,"MEAN_ANOMALY":261.0264,"EPHEMERIS_TYPE":0,"CLASSIFICATION_TYPE":"U","NORAD_CAT_ID":49210,"ELEMENT_SET_NO":999,"REV_AT_EPOCH":22654,"BSTAR":0.0010359,"MEAN_MOTION_DOT":3.91e-06,"MEAN_MOTION_DDOT":0.0},{"OBJECT_NAME":"ONEWEB-0345","OBJECT_ID":"2021-083AB","EPOCH":"2026-05-15T01:12:25.932096","MEAN_MOTION":13.13469131,"ECCENTRICITY":0.0001566,"INCLINATION":87.895,"RA_OF_ASC_NODE":326.8219,"ARG_OF_PERICENTER":100.0116,"MEAN_ANOMALY":260.119,"EPHEMERIS_TYPE":0,"CLASSIFICATION_TYPE":"U","NORAD_CAT_ID":49211,"ELEMENT_SET_NO":999,"REV_AT_EPOCH":22655,"BSTAR":0.00072201,"MEAN_MOTION_DOT":2.76e-06,"MEAN_MOTION_DDOT":0.0},{"OBJECT_NAME":"ONEWEB-0346","OBJECT_ID":"2021-083AC","EPOCH":"2026-05-15T01:30:57.280608","MEAN_MOTION":13.18685274,"ECCENTRICITY":0.0002339,"INCLINATION":87.9166,"RA_OF_ASC_NODE":342.0514,"ARG_OF_PERICENTER":98.8674,"MEAN_ANOMALY":261.2724,"EPHEMERIS_TYPE":0,"CLASSIFICATION_TYPE":"U","NORAD_CAT_ID":49212,"ELEMENT_SET_NO":999,"REV_AT_EPOCH":22561,"BSTAR":9.5952e-05,"MEAN_MOTION_DOT":5.1e-07,"MEAN_MOTION_DDOT":0.0},{"OBJECT_NAME":"ONEWEB-0348","OBJECT_ID":"2021-083AD","EPOCH":"2026-05-14T16:55:01.879104","MEAN_MOTION":13.20855349,"ECCENTRICITY":0.0002112,"INCLINATION":87.9163,"RA_OF_ASC_NODE":281.1181,"ARG_OF_PERICENTER":112.4455,"MEAN_ANOMALY":247.6903,"EPHEMERIS_TYPE":0,"CLASSIFICATION_TYPE":"U","NORAD_CAT_ID":49213,"ELEMENT_SET_NO":999,"REV_AT_EPOCH":23239,"BSTAR":8.445200000000002e-06,"MEAN_MOTION_DOT":1.6e-07,"MEAN_MOTION_DDOT":0.0},{"OBJECT_NAME":"ONEWEB-0350","OBJECT_ID":"2021-083AE","EPOCH":"2026-05-15T01:25:50.314368","MEAN_MOTION":13.1347098,"ECCENTRICITY":0.0001586,"INCLINATION":87.8953,"RA_OF_ASC_NODE":326.8216,"ARG_OF_PERICENTER":100.1696,"MEAN_ANOMALY":259.9612,"EPHEMERIS_TYPE":0,"CLASSIFICATION_TYPE":"U","NORAD_CAT_ID":49214,"ELEMENT_SET_NO":999,"REV_AT_EPOCH":22658,"BSTAR":0.00092224,"MEAN_MOTION_DOT":3.5e-06,"MEAN_MOTION_DDOT":0.0},{"OBJECT_NAME":"ONEWEB-0351","OBJECT_ID":"2021-083AF","EPOCH":"2026-05-14T16:45:14.632992","MEAN_MOTION":13.20911253,"ECCENTRICITY":0.000106,"INCLINATION":87.9164,"RA_OF_ASC_NODE":281.1178,"ARG_OF_PERICENTER":86.8342,"MEAN_ANOMALY":273.2913,"EPHEMERIS_TYPE":0,"CLASSIFICATION_TYPE":"U","NORAD_CAT_ID":49215,"ELEMENT_SET_NO":999,"REV_AT_EPOCH":23235,"BSTAR":-0.00022085,"MEAN_MOTION_DOT":-7.7e-07,"MEAN_MOTION_DDOT":0.0},{"OBJECT_NAME":"ONEWEB-0352","OBJECT_ID":"2021-083AG","EPOCH":"2026-05-15T00:57:48.242016","MEAN_MOTION":13.13469597,"ECCENTRICITY":0.0001483,"INCLINATION":87.8941,"RA_OF_ASC_NODE":326.8371,"ARG_OF_PERICENTER":79.7587,"MEAN_ANOMALY":280.3709,"EPHEMERIS_TYPE":0,"CLASSIFICATION_TYPE":"U","NORAD_CAT_ID":49216,"ELEMENT_SET_NO":999,"REV_AT_EPOCH":22667,"BSTAR":0.00020506,"MEAN_MOTION_DOT":8.8e-07,"MEAN_MOTION_DDOT":0.0},{"OBJECT_NAME":"ONEWEB-0354","OBJECT_ID":"2021-083AH","EPOCH":"2026-05-14T19:12:52.495776","MEAN_MOTION":13.20687875,"ECCENTRICITY":0.0001909,"INCLINATION":87.9162,"RA_OF_ASC_NODE":281.0968,"ARG_OF_PERICENTER":110.9566,"MEAN_ANOMALY":249.1772,"EPHEMERIS_TYPE":0,"CLASSIFICATION_TYPE":"U","NORAD_CAT_ID":49217,"ELEMENT_SET_NO":999,"REV_AT_EPOCH":23240,"BSTAR":-4.1896e-05,"MEAN_MOTION_DOT":-4e-08,"MEAN_MOTION_DDOT":0.0},{"OBJECT_NAME":"ONEWEB-0355","OBJECT_ID":"2021-083AJ","EPOCH":"2026-05-15T01:39:27.305856","MEAN_MOTION":13.13470487,"ECCENTRICITY":0.0001537,"INCLINATION":87.8931,"RA_OF_ASC_NODE":326.8356,"ARG_OF_PERICENTER":89.4473,"MEAN_ANOMALY":270.6832,"EPHEMERIS_TYPE":0,"CLASSIFICATION_TYPE":"U","NORAD_CAT_ID":49218,"ELEMENT_SET_NO":999,"REV_AT_EPOCH":22655,"BSTAR":0.00067912,"MEAN_MOTION_DOT":2.61e-06,"MEAN_MOTION_DDOT":0.0},{"OBJECT_NAME":"ONEWEB-0357","OBJECT_ID":"2021-083AK","EPOCH":"2026-05-14T19:08:04.690464","MEAN_MOTION":13.20714957,"ECCENTRICITY":0.0001686,"INCLINATION":87.9164,"RA_OF_ASC_NODE":281.0918,"ARG_OF_PERICENTER":95.9,"MEAN_ANOMALY":264.2326,"EPHEMERIS_TYPE":0,"CLASSIFICATION_TYPE":"U","NORAD_CAT_ID":49219,"ELEMENT_SET_NO":999,"REV_AT_EPOCH":23240,"BSTAR":-9.2317e-05,"MEAN_MOTION_DOT":-2.5e-07,"MEAN_MOTION_DDOT":0.0},{"OBJECT_NAME":"ONEWEB-0332","OBJECT_ID":"2021-090A","EPOCH":"2026-05-14T10:08:10.347936","MEAN_MOTION":13.14503402,"ECCENTRICITY":0.0001831,"INCLINATION":87.8929,"RA_OF_ASC_NODE":296.4452,"ARG_OF_PERICENTER":88.0082,"MEAN_ANOMALY":272.1257,"EPHEMERIS_TYPE":0,"CLASSIFICATION_TYPE":"U","NORAD_CAT_ID":49279,"ELEMENT_SET_NO":999,"REV_AT_EPOCH":22314,"BSTAR":0.00034917,"MEAN_MOTION_DOT":1.42e-06,"MEAN_MOTION_DDOT":0.0},{"OBJECT_NAME":"ONEWEB-0347","OBJECT_ID":"2021-090B","EPOCH":"2026-05-15T07:37:19.008768","MEAN_MOTION":13.2079932,"ECCENTRICITY":0.0002044,"INCLINATION":87.9161,"RA_OF_ASC_NODE":280.9964,"ARG_OF_PERICENTER":92.2201,"MEAN_ANOMALY":267.9167,"EPHEMERIS_TYPE":0,"CLASSIFICATION_TYPE":"U","NORAD_CAT_ID":49280,"ELEMENT_SET_NO":999,"REV_AT_EPOCH":22670,"BSTAR":-5.1623e-05,"MEAN_MOTION_DOT":-8e-08,"MEAN_MOTION_DDOT":0.0}]