ONEWEB-0340             
1 49206U 21083W   26135.05136641  .00000026  00000+0  32649-4 0  9993
2 49206  87.9177 342.0486 0001879  91.1481 268.9866 13.18683718225604
ONEWEB-0341             
1 49207U 21083X   26135.13398322  .00000160  00000+0  37200-3 0  9995
2 49207  87.9173 342.0373 0001489  98.6465 261.4836 13.18685465225636
ONEWEB-0342             
1 49208U 21083Y   26135.32091540 -.00000023  00000+0 -89085-4 0  9998
2 49208  87.9164 280.9915 0001781  95.0585 265.0752 13.20771677232446
ONEWEB-0343             
1 49209U 21083Z   26135.06653321  .00000115  00000+0  25879-3 0  9991
2 49209  87.9174 342.0486 0001532  76.0562 284.0740 13.18684356225678
ONEWEB-0344             
1 49210U 21083AA  26135.05877392  .00000391  00000+0  10359-2 0  9990
2 49210  87.8932 326.8450 0001518  99.1037 261.0264 13.13471412226544
ONEWEB-0345             
1 49211U 21083AB  26135.05030014  .00000276  00000+0  72201-3 0  9990
2 49211  87.8950 326.8219 0001566 100.0116 260.1190 13.13469131226555
ONEWEB-0346             
1 49212U 21083AC  26135.06316297  .00000051  00000+0  95952-4 0  9992
2 49212  87.9166 342.0514 0002339  98.8674 261.2724 13.18685274225610
ONEWEB-0348             
1 49213U 21083AD  26134.70488286  .00000016  00000+0  84452-5 0  9996
2 49213  87.9163 281.1181 0002112 112.4455 247.6903 13.20855349232395
ONEWEB-0350             
1 49214U 21083AE  26135.05961012  .00000350  00000+0  92224-3 0  9994
2 49214  87.8953 326.8216 0001586 100.1696 259.9612 13.13470980226586
ONEWEB-0351             
1 49215U 21083AF  26134.69808603 -.00000077  00000+0 -22085-3 0  9996
2 49215  87.9164 281.1178 0001060  86.8342 273.2913 13.20911253232353
ONEWEB-0352             
1 49216U 21083AG  26135.04014169  .00000088  00000+0  20506-3 0  9999
2 49216  87.8941 326.8371 0001483  79.7587 280.3709 13.13469597226670
ONEWEB-0354             
1 49217U 21083AH  26134.80060759 -.00000004  00000+0 -41896-4 0  9995
2 49217  87.9162 281.0968 0001909 110.9566 249.1772 13.20687875232409
ONEWEB-0355             
1 49218U 21083AJ  26135.06906604  .00000261  00000+0  67912-3 0  9992
2 49218  87.8931 326.8356 0001537  89.4473 270.6832 13.13470487226552
ONEWEB-0357             
1 49219U 21083AK  26134.79727651 -.00000025  00000+0 -92317-4 0  9993
2 49219  87.9164 281.0918 0001686  95.9000 264.2326 13.20714957232400
ONEWEB-0332             
1 49279U 21090A   26134.42234199  .00000142  00000+0  34917-3 0  9996
2 49279  87.8929 296.4452 0001831  88.0082 272.1257 13.14503402223148
ONEWEB-0347             
1 49280U 21090B   26135.31758112 -.00000008  00000+0 -51623-4 0  9990
2 49280  87.9161 280.9964 0002044  92.2201 267.9167 13.20799320226702
